STARLINK-36313          
1 68156U 26049Q   26078.51069617 -.00172305  13864-4 -26937-3 0  9991
2 68156  97.2787  98.0771 0002314   1.4479 358.6808 16.03927223   952
STARLINK-37064          
1 68157U 26049R   26078.51127920 -.00144348  10411-4 -22898-3 0  9997
2 68157  97.2784  98.0764 0002238 357.8304   2.2966 16.03667729   951
STARLINK-37069          
1 68158U 26049S   26078.50941725  .01093981  68408-3  14785-2 0  9992
2 68158  97.2784  98.0788 0001368   7.2640 352.8662 16.06600253   959
STARLINK-37053          
1 68159U 26049T   26078.32241881  .00065181  41103-5  95454-4 0  9998
2 68159  97.2784  97.8738 0002531 141.0873 219.0591 16.05261971   921
STARLINK-36306          
1 68160U 26049U   26078.50927702 -.00201573  18201-4 -30344-3 0  9990
2 68160  97.2782  98.0789 0002364  13.0399 347.0943 16.04569636   959
STARLINK-37057          
1 68161U 26049V   26078.32292760  .00112551  77340-5  16636-3 0  9993
2 68161  97.2783  97.8730 0002320 150.0328 210.1087 16.05035055   920
STARLINK-37013          
1 68162U 26049W   26078.50794989  .00596665  17560-3  83676-3 0  9990
2 68162  97.2782  98.0812 0005289 356.1624   3.9616 16.05836372   959
STARLINK-36958          
1 68163U 26049X   26078.32127012  .00833356  36940-3  11064-2 0  9993
2 68163  97.2782  97.8761 0002229 145.2478 214.8950 16.06800152   924
STARLINK-37002          
1 68164U 26049Y   26078.50887796 -.00116378  76670-5 -17240-3 0  9995
2 68164  97.2783  98.0796 0002556   7.0762 353.0555 16.04788784   955
STARLINK-36971          
1 68165U 26049Z   26078.50824529 -.00112852  73698-5 -16410-3 0  9999
2 68165  97.2781  98.0809 0002491   7.1165 353.0151 16.05092719   954
STARLINK-36273          
1 68166U 26049AA  26078.32031698  .00948095  50170-3  11974-2 0  9998
2 68166  97.2783  97.8777 0000790  29.1867 330.9460 16.07642662   925
STARLINK-36969          
1 68167U 26050A   26078.57016830 -.00762286  19812-3 -16788-2 0  9993
2 68167  53.1618 232.5443 0000488 318.1927  41.9065 15.97343210  2033
STARLINK-36984          
1 68168U 26050B   26078.56997631 -.00752821  19400-3 -16463-2 0  9997
2 68168  53.1620 232.5441 0000565 333.0752  27.0248 15.97468217  2036
STARLINK-37077          
1 68169U 26050C   26078.56974941 -.00740191  18853-3 -16046-2 0  9992
2 68169  53.1619 232.5425 0000745 335.0992  25.0002 15.97622802  2033
STARLINK-37003          
1 68170U 26050D   26078.56952426 -.00716345  17815-3 -15382-2 0  9991
2 68170  53.1620 232.5407 0000461 327.9149  32.1853 15.97788708  2037
STARLINK-37034          
1 68171U 26050E   26078.56928901 -.00745719  19165-3 -15903-2 0  9999
2 68171  53.1619 232.5395 0000585 340.0636  20.0371 15.97919140  2033
